ONEWEB-0228             
1 48780U 21045P   24218.76129978  .00014525  00000+0  38692-1 0  9990
2 48780  87.9019  34.5784 0001495  75.2819 284.8476 13.15186896155991
